{
  "type": "FeatureCollection",
  "features": [
    {
      "type": "Feature",
      "properties": {
        "norad_id": 66909,
        "name": "SILVERSAT",
        "group": "stations",
        "lat": -22.956105228794428,
        "lon": 131.50169481847854,
        "alt_km": 417.39403875171865,
        "timestamp": "2025-12-10T23:33:11.640726+00:00",
        "meta_object_name": "SILVERSAT",
        "meta_object_id": "1998-067XV",
        "meta_epoch": "2025-12-10T14:24:17.076960",
        "meta_mean_motion": 15.51201749,
        "meta_eccentricity": 0.00046642,
        "meta_inclination": 51.6305,
        "meta_ra_of_asc_node": 153.0034,
        "meta_arg_of_pericenter": 216.0058,
        "meta_mean_anomaly": 144.0618,
        "meta_ephemeris_type": 0,
        "meta_classification_type": "U",
        "meta_norad_cat_id": 66909,
        "meta_element_set_no": 999,
        "meta_rev_at_epoch": 128,
        "meta_bstar": 0.0015461783,
        "meta_mean_motion_dot": 0.00092744,
        "meta_mean_motion_ddot": 0,
        "tle_line1": "1 66909U 98067XV  25344.60019765  .00092744  00000+0  15462-2 0  9997",
        "tle_line2": "2 66909  51.6305 153.0034 0004664 216.0058 144.0618 15.51201749  1280"
      },
      "geometry": {
        "type": "Point",
        "coordinates": [
          131.50169481847854,
          -22.956105228794428
        ]
      }
    },
    {
      "type": "Feature",
      "properties": {
        "norad_id": 66910,
        "name": "1998-067XW",
        "group": "stations",
        "lat": -17.38922475627794,
        "lon": 136.72809025950863,
        "alt_km": 418.02971798733233,
        "timestamp": "2025-12-10T23:33:11.640736+00:00",
        "meta_object_name": "1998-067XW",
        "meta_object_id": "1998-067XW",
        "meta_epoch": "2025-12-10T11:16:54.563808",
        "meta_mean_motion": 15.51350337,
        "meta_eccentricity": 0.00055419,
        "meta_inclination": 51.6299,
        "meta_ra_of_asc_node": 153.6351,
        "meta_arg_of_pericenter": 197.1967,
        "meta_mean_anomaly": 162.8836,
        "meta_ephemeris_type": 0,
        "meta_classification_type": "U",
        "meta_norad_cat_id": 66910,
        "meta_element_set_no": 999,
        "meta_rev_at_epoch": 126,
        "meta_bstar": 0.0013818348,
        "meta_mean_motion_dot": 0.00083191,
        "meta_mean_motion_ddot": 0,
        "tle_line1": "1 66910U 98067XW  25344.47007597  .00083191  00000+0  13818-2 0  9993",
        "tle_line2": "2 66910  51.6299 153.6351 0005541 197.1967 162.8836 15.51350337  1261"
      },
      "geometry": {
        "type": "Point",
        "coordinates": [
          136.72809025950863,
          -17.38922475627794
        ]
      }
    },
    {
      "type": "Feature",
      "properties": {
        "norad_id": 66911,
        "name": "1998-067XX",
        "group": "stations",
        "lat": -15.491676837389349,
        "lon": 138.4007860073522,
        "alt_km": 417.5806342101996,
        "timestamp": "2025-12-10T23:33:11.640746+00:00",
        "meta_object_name": "1998-067XX",
        "meta_object_id": "1998-067XX",
        "meta_epoch": "2025-12-09T02:48:25.040736",
        "meta_mean_motion": 15.51276485,
        "meta_eccentricity": 0.00057034,
        "meta_inclination": 51.6296,
        "meta_ra_of_asc_node": 160.3494,
        "meta_arg_of_pericenter": 191.2268,
        "meta_mean_anomaly": 168.8595,
        "meta_ephemeris_type": 0,
        "meta_classification_type": "U",
        "meta_norad_cat_id": 66911,
        "meta_element_set_no": 999,
        "meta_rev_at_epoch": 104,
        "meta_bstar": 0.0014245982,
        "meta_mean_motion_dot": 0.00085582,
        "meta_mean_motion_ddot": 0,
        "tle_line1": "1 66911U 98067XX  25343.11695649  .00085582  00000+0  14246-2 0  9997",
        "tle_line2": "2 66911  51.6296 160.3494 0005703 191.2268 168.8595 15.51276485  1046"
      },
      "geometry": {
        "type": "Point",
        "coordinates": [
          138.4007860073522,
          -15.491676837389349
        ]
      }
    },
    {
      "type": "Feature",
      "properties": {
        "norad_id": 66912,
        "name": "1998-067XY",
        "group": "stations",
        "lat": -27.59891490975395,
        "lon": 126.6564540032485,
        "alt_km": 418.7864103355532,
        "timestamp": "2025-12-10T23:33:11.640755+00:00",
        "meta_object_name": "1998-067XY",
        "meta_object_id": "1998-067XY",
        "meta_epoch": "2025-12-10T12:53:00.237984",
        "meta_mean_motion": 15.50813363,
        "meta_eccentricity": 0.00047702,
        "meta_inclination": 51.6309,
        "meta_ra_of_asc_node": 153.3305,
        "meta_arg_of_pericenter": 212.0937,
        "meta_mean_anomaly": 147.9763,
        "meta_ephemeris_type": 0,
        "meta_classification_type": "U",
        "meta_norad_cat_id": 66912,
        "meta_element_set_no": 999,
        "meta_rev_at_epoch": 126,
        "meta_bstar": 0.0011701261,
        "meta_mean_motion_dot": 0.00068898,
        "meta_mean_motion_ddot": 0,
        "tle_line1": "1 66912U 98067XY  25344.53680831  .00068898  00000+0  11701-2 0  9996",
        "tle_line2": "2 66912  51.6309 153.3305 0004770 212.0937 147.9763 15.50813363  1263"
      },
      "geometry": {
        "type": "Point",
        "coordinates": [
          126.6564540032485,
          -27.59891490975395
        ]
      }
    }
  ]
}